[{"OBJECT_NAME":"HAWK-2B","OBJECT_ID":"2021-006CZ","EPOCH":"2026-03-09T16:13:51.664224","MEAN_MOTION":15.33301353,"ECCENTRICITY":0.00071021,"INCLINATION":97.2334,"RA_OF_ASC_NODE":114.114,"ARG_OF_PERICENTER":185.9063,"MEAN_ANOMALY":174.2098,"EPHEMERIS_TYPE":0,"CLASSIFICATION_TYPE":"U","NORAD_CAT_ID":47508,"ELEMENT_SET_NO":999,"REV_AT_EPOCH":28424,"BSTAR":0.00029650607,"MEAN_MOTION_DOT":9.474e-5,"MEAN_MOTION_DDOT":0},{"OBJECT_NAME":"STARLINK-34336","OBJECT_ID":"2025-130AA","EPOCH":"2026-03-09T08:18:45.157536","MEAN_MOTION":15.30161213,"ECCENTRICITY":0.00011591,"INCLINATION":53.1586,"RA_OF_ASC_NODE":92.6753,"ARG_OF_PERICENTER":80.73,"MEAN_ANOMALY":279.3832,"EPHEMERIS_TYPE":0,"CLASSIFICATION_TYPE":"U","NORAD_CAT_ID":64462,"ELEMENT_SET_NO":999,"REV_AT_EPOCH":4061,"BSTAR":0.00058711216,"MEAN_MOTION_DOT":0.00017049,"MEAN_MOTION_DDOT":0}]
